DMSP 5D-3 F16 (USA 172) 
1 28054U 03048A   26095.82293697  .00000148  00000+0  10092-3 0  9999
2 28054  98.9960 119.1519 0006947   1.5678 171.5845 14.14473000159259
METEOSAT-9 (MSG-2)      
1 28912U 05049B   26095.54003167  .00000127  00000+0  00000+0 0  9996
2 28912   9.1990  54.8663 0000778  50.0692 329.0058  1.00277791  6274
DMSP 5D-3 F17 (USA 191) 
1 29522U 06050A   26095.83158868  .00000219  00000+0  13584-3 0  9995
2 29522  98.7408 103.8763 0008903 261.9433  98.0730 14.14976958  2197
FENGYUN 3A              
1 32958U 08026A   26095.73079329  .00000166  00000+0  99424-4 0  9999
2 32958  98.6833  37.9408 0008423 344.1921  15.8991 14.19555231925126
GOES 14                 
1 35491U 09033A   26095.78109544  .00000045  00000+0  00000+0 0  9994
2 35491   1.5030  83.9171 0001844 299.1245 274.7211  1.00112185  5863
DMSP 5D-3 F18 (USA 210) 
1 35951U 09057A   26095.86832495  .00000311  00000+0  18396-3 0  9995
2 35951  98.9002  76.8139 0012205  95.6237 264.6328 14.14854365849361
EWS-G2 (GOES 15)        
1 36411U 10008A   26095.80732296  .00000024  00000+0  00000+0 0  9997
2 36411   1.0872  84.2709 0003425  17.9810  85.7619  1.00271609 58910
COMS 1                  
1 36744U 10032A   26095.58326816 -.00000341  00000+0  00000+0 0  9998
2 36744   4.6174  76.3641 0001362 327.0612 128.5884  1.00272136 50360
FENGYUN 3B              
1 37214U 10059A   26095.90975523 -.00000041  00000+0  20180-5 0  9995
2 37214  98.9703 141.5908 0022679  34.0957 140.5317 14.14825316797208
SUOMI NPP               
1 37849U 11061A   26095.80996384  .00000143  00000+0  89006-4 0  9993
2 37849  98.7904  37.2017 0002064 141.4958 218.6365 14.19501375748178
METEOSAT-10 (MSG-3)     
1 38552U 12035B   26095.74495572 -.00000003  00000+0  00000+0 0  9991
2 38552   4.5007  61.3190 0002400 297.4752 103.5053  1.00273640 50132
METOP-B                 
1 38771U 12049A   26095.82714125  .00000161  00000+0  93537-4 0  9992
2 38771  98.6583 148.7445 0002491 168.4775 191.6459 14.21428016702984
INSAT-3D                
1 39216U 13038B   26095.84195384 -.00000337  00000+0  00000+0 0  9992
2 39216   1.7391  83.4424 0001734 268.1102 275.1739  1.00271447 46352
FENGYUN 3C              
1 39260U 13052A   26095.88559000  .00000163  00000+0  10383-3 0  9995
2 39260  98.4932  73.1030 0013718 228.7159 131.2835 14.15738188648338
METEOR-M 2              
1 40069U 14037A   26095.85445063  .00000125  00000+0  76505-4 0  9995
2 40069  98.5068  74.1770 0004607 243.2885 116.7821 14.21440036609042
HIMAWARI-8              
1 40267U 14060A   26095.84412052 -.00000273  00000+0  00000+0 0  9999
2 40267   0.0160 175.3917 0001016 189.6338 273.6543  1.00273621 42038
FENGYUN 2G              
1 40367U 14090A   26095.87795057 -.00000298  00000+0  00000+0 0  9992
2 40367   5.4566  73.6781 0002671 145.0281  30.9094  1.00282386 41276
