[{"OBJECT_NAME":"DMSP 5D-3 F16 (USA 172)","OBJECT_ID":"2003-048A","EPOCH":"2026-04-05T19:45:01.754208","MEAN_MOTION":14.14473,"ECCENTRICITY":0.0006947,"INCLINATION":98.996,"RA_OF_ASC_NODE":119.1519,"ARG_OF_PERICENTER":1.5678,"MEAN_ANOMALY":171.5845,"EPHEMERIS_TYPE":0,"CLASSIFICATION_TYPE":"U","NORAD_CAT_ID":28054,"ELEMENT_SET_NO":999,"REV_AT_EPOCH":15925,"BSTAR":0.00010092,"MEAN_MOTION_DOT":1.48e-6,"MEAN_MOTION_DDOT":0},{"OBJECT_NAME":"METEOSAT-9 (MSG-2)","OBJECT_ID":"2005-049B","EPOCH":"2026-04-05T12:57:38.736288","MEAN_MOTION":1.00277791,"ECCENTRICITY":7.78e-5,"INCLINATION":9.199,"RA_OF_ASC_NODE":54.8663,"ARG_OF_PERICENTER":50.0692,"MEAN_ANOMALY":329.0058,"EPHEMERIS_TYPE":0,"CLASSIFICATION_TYPE":"U","NORAD_CAT_ID":28912,"ELEMENT_SET_NO":999,"REV_AT_EPOCH":627,"BSTAR":0,"MEAN_MOTION_DOT":1.27e-6,"MEAN_MOTION_DDOT":0},{"OBJECT_NAME":"DMSP 5D-3 F17 (USA 191)","OBJECT_ID":"2006-050A","EPOCH":"2026-04-05T19:57:29.261952","MEAN_MOTION":14.14976958,"ECCENTRICITY":0.0008903,"INCLINATION":98.7408,"RA_OF_ASC_NODE":103.8763,"ARG_OF_PERICENTER":261.9433,"MEAN_ANOMALY":98.073,"EPHEMERIS_TYPE":0,"CLASSIFICATION_TYPE":"U","NORAD_CAT_ID":29522,"ELEMENT_SET_NO":999,"REV_AT_EPOCH":219,"BSTAR":0.00013584,"MEAN_MOTION_DOT":2.19e-6,"MEAN_MOTION_DDOT":0},{"OBJECT_NAME":"FENGYUN 3A","OBJECT_ID":"2008-026A","EPOCH":"2026-04-05T17:32:20.540256","MEAN_MOTION":14.19555231,"ECCENTRICITY":0.0008423,"INCLINATION":98.6833,"RA_OF_ASC_NODE":37.9408,"ARG_OF_PERICENTER":344.1921,"MEAN_ANOMALY":15.8991,"EPHEMERIS_TYPE":0,"CLASSIFICATION_TYPE":"U","NORAD_CAT_ID":32958,"ELEMENT_SET_NO":999,"REV_AT_EPOCH":92512,"BSTAR":9.9424e-5,"MEAN_MOTION_DOT":1.66e-6,"MEAN_MOTION_DDOT":0},{"OBJECT_NAME":"GOES 14","OBJECT_ID":"2009-033A","EPOCH":"2026-04-05T18:44:46.646016","MEAN_MOTION":1.00112185,"ECCENTRICITY":0.0001844,"INCLINATION":1.503,"RA_OF_ASC_NODE":83.9171,"ARG_OF_PERICENTER":299.1245,"MEAN_ANOMALY":274.7211,"EPHEMERIS_TYPE":0,"CLASSIFICATION_TYPE":"U","NORAD_CAT_ID":35491,"ELEMENT_SET_NO":999,"REV_AT_EPOCH":586,"BSTAR":0,"MEAN_MOTION_DOT":4.5e-7,"MEAN_MOTION_DDOT":0},{"OBJECT_NAME":"DMSP 5D-3 F18 (USA 210)","OBJECT_ID":"2009-057A","EPOCH":"2026-04-05T20:50:23.275680","MEAN_MOTION":14.14854365,"ECCENTRICITY":0.0012205,"INCLINATION":98.9002,"RA_OF_ASC_NODE":76.8139,"ARG_OF_PERICENTER":95.6237,"MEAN_ANOMALY":264.6328,"EPHEMERIS_TYPE":0,"CLASSIFICATION_TYPE":"U","NORAD_CAT_ID":35951,"ELEMENT_SET_NO":999,"REV_AT_EPOCH":84936,"BSTAR":0.00018396,"MEAN_MOTION_DOT":3.11e-6,"MEAN_MOTION_DDOT":0},{"OBJECT_NAME":"EWS-G2 (GOES 15)","OBJECT_ID":"2010-008A","EPOCH":"2026-04-05T19:22:32.703744","MEAN_MOTION":1.00271609,"ECCENTRICITY":0.0003425,"INCLINATION":1.0872,"RA_OF_ASC_NODE":84.2709,"ARG_OF_PERICENTER":17.981,"MEAN_ANOMALY":85.7619,"EPHEMERIS_TYPE":0,"CLASSIFICATION_TYPE":"U","NORAD_CAT_ID":36411,"ELEMENT_SET_NO":999,"REV_AT_EPOCH":5891,"BSTAR":0,"MEAN_MOTION_DOT":2.4e-7,"MEAN_MOTION_DDOT":0},{"OBJECT_NAME":"COMS 1","OBJECT_ID":"2010-032A","EPOCH":"2026-04-05T13:59:54.369024","MEAN_MOTION":1.00272136,"ECCENTRICITY":0.0001362,"INCLINATION":4.6174,"RA_OF_ASC_NODE":76.3641,"ARG_OF_PERICENTER":327.0612,"MEAN_ANOMALY":128.5884,"EPHEMERIS_TYPE":0,"CLASSIFICATION_TYPE":"U","NORAD_CAT_ID":36744,"ELEMENT_SET_NO":999,"REV_AT_EPOCH":5036,"BSTAR":0,"MEAN_MOTION_DOT":-3.41e-6,"MEAN_MOTION_DDOT":0},{"OBJECT_NAME":"FENGYUN 3B","OBJECT_ID":"2010-059A","EPOCH":"2026-04-05T21:50:02.851872","MEAN_MOTION":14.14825316,"ECCENTRICITY":0.0022679,"INCLINATION":98.9703,"RA_OF_ASC_NODE":141.5908,"ARG_OF_PERICENTER":34.0957,"MEAN_ANOMALY":140.5317,"EPHEMERIS_TYPE":0,"CLASSIFICATION_TYPE":"U","NORAD_CAT_ID":37214,"ELEMENT_SET_NO":999,"REV_AT_EPOCH":79720,"BSTAR":2.018e-6,"MEAN_MOTION_DOT":-4.1e-7,"MEAN_MOTION_DDOT":0},{"OBJECT_NAME":"SUOMI NPP","OBJECT_ID":"2011-061A","EPOCH":"2026-04-05T19:26:20.875776","MEAN_MOTION":14.19501375,"ECCENTRICITY":0.0002064,"INCLINATION":98.7904,"RA_OF_ASC_NODE":37.2017,"ARG_OF_PERICENTER":141.4958,"MEAN_ANOMALY":218.6365,"EPHEMERIS_TYPE":0,"CLASSIFICATION_TYPE":"U","NORAD_CAT_ID":37849,"ELEMENT_SET_NO":999,"REV_AT_EPOCH":74817,"BSTAR":8.9006e-5,"MEAN_MOTION_DOT":1.43e-6,"MEAN_MOTION_DDOT":0},{"OBJECT_NAME":"METEOSAT-10 (MSG-3)","OBJECT_ID":"2012-035B","EPOCH":"2026-04-05T17:52:44.174208","MEAN_MOTION":1.0027364,"ECCENTRICITY":0.00024,"INCLINATION":4.5007,"RA_OF_ASC_NODE":61.319,"ARG_OF_PERICENTER":297.4752,"MEAN_ANOMALY":103.5053,"EPHEMERIS_TYPE":0,"CLASSIFICATION_TYPE":"U","NORAD_CAT_ID":38552,"ELEMENT_SET_NO":999,"REV_AT_EPOCH":5013,"BSTAR":0,"MEAN_MOTION_DOT":-3.0e-8,"MEAN_MOTION_DDOT":0},{"OBJECT_NAME":"METOP-B","OBJECT_ID":"2012-049A","EPOCH":"2026-04-05T19:51:05.004000","MEAN_MOTION":14.21428016,"ECCENTRICITY":0.0002491,"INCLINATION":98.6583,"RA_OF_ASC_NODE":148.7445,"ARG_OF_PERICENTER":168.4775,"MEAN_ANOMALY":191.6459,"EPHEMERIS_TYPE":0,"CLASSIFICATION_TYPE":"U","NORAD_CAT_ID":38771,"ELEMENT_SET_NO":999,"REV_AT_EPOCH":70298,"BSTAR":9.3537e-5,"MEAN_MOTION_DOT":1.61e-6,"MEAN_MOTION_DDOT":0},{"OBJECT_NAME":"INSAT-3D","OBJECT_ID":"2013-038B","EPOCH":"2026-04-05T20:12:24.811776","MEAN_MOTION":1.00271447,"ECCENTRICITY":0.0001734,"INCLINATION":1.7391,"RA_OF_ASC_NODE":83.4424,"ARG_OF_PERICENTER":268.1102,"MEAN_ANOMALY":275.1739,"EPHEMERIS_TYPE":0,"CLASSIFICATION_TYPE":"U","NORAD_CAT_ID":39216,"ELEMENT_SET_NO":999,"REV_AT_EPOCH":4635,"BSTAR":0,"MEAN_MOTION_DOT":-3.37e-6,"MEAN_MOTION_DDOT":0},{"OBJECT_NAME":"FENGYUN 3C","OBJECT_ID":"2013-052A","EPOCH":"2026-04-05T21:15:14.976000","MEAN_MOTION":14.15738188,"ECCENTRICITY":0.0013718,"INCLINATION":98.4932,"RA_OF_ASC_NODE":73.103,"ARG_OF_PERICENTER":228.7159,"MEAN_ANOMALY":131.2835,"EPHEMERIS_TYPE":0,"CLASSIFICATION_TYPE":"U","NORAD_CAT_ID":39260,"ELEMENT_SET_NO":999,"REV_AT_EPOCH":64833,"BSTAR":0.00010383,"MEAN_MOTION_DOT":1.63e-6,"MEAN_MOTION_DDOT":0},{"OBJECT_NAME":"METEOR-M 2","OBJECT_ID":"2014-037A","EPOCH":"2026-04-05T20:30:24.534432","MEAN_MOTION":14.21440036,"ECCENTRICITY":0.0004607,"INCLINATION":98.5068,"RA_OF_ASC_NODE":74.177,"ARG_OF_PERICENTER":243.2885,"MEAN_ANOMALY":116.7821,"EPHEMERIS_TYPE":0,"CLASSIFICATION_TYPE":"U","NORAD_CAT_ID":40069,"ELEMENT_SET_NO":999,"REV_AT_EPOCH":60904,"BSTAR":7.6505e-5,"MEAN_MOTION_DOT":1.25e-6,"MEAN_MOTION_DDOT":0},{"OBJECT_NAME":"HIMAWARI-8","OBJECT_ID":"2014-060A","EPOCH":"2026-04-05T20:15:32.012928","MEAN_MOTION":1.00273621,"ECCENTRICITY":0.0001016,"INCLINATION":0.016,"RA_OF_ASC_NODE":175.3917,"ARG_OF_PERICENTER":189.6338,"MEAN_ANOMALY":273.6543,"EPHEMERIS_TYPE":0,"CLASSIFICATION_TYPE":"U","NORAD_CAT_ID":40267,"ELEMENT_SET_NO":999,"REV_AT_EPOCH":4203,"BSTAR":0,"MEAN_MOTION_DOT":-2.73e-6,"MEAN_MOTION_DDOT":0},{"OBJECT_NAME":"FENGYUN 2G","OBJECT_ID":"2014-090A","EPOCH":"2026-04-05T21:04:14.929248","MEAN_MOTION":1.00282386,"ECCENTRICITY":0.0002671,"INCLINATION":5.4566,"RA_OF_ASC_NODE":73.6781,"ARG_OF_PERICENTER":145.0281,"MEAN_ANOMALY":30.9094,"EPHEMERIS_TYPE":0,"CLASSIFICATION_TYPE":"U","NORAD_CAT_ID":40367,"ELEMENT_SET_NO":999,"REV_AT_EPOCH":4127,"BSTAR":0,"MEAN_MOTION_DOT":-2.98e-6,"MEAN_MOTION_DDOT":0}]
